ONEWEB-0275             
1 48993U 21060AC  24208.41706973  .00000071  00000+0  15191-3 0  9992
2 48993  87.9119   6.2991 0001623  87.1528 272.9789 13.16594788148661
ONEWEB-0276             
1 48994U 21060AD  24208.67830832  .00000039  00000+0  69453-4 0  9998
2 48994  87.9122   6.2438 0001518  88.4325 271.6980 13.16594536150016
ONEWEB-0277             
1 48995U 21060AE  24208.38698582 -.00000056  00000+0 -18065-3 0  9994
2 48995  87.9117   6.3394 0001533  76.2274 283.9028 13.16594564148666
ONEWEB-0278             
1 48996U 21060AF  24208.37748327  .00000036  00000+0  60165-4 0  9992
2 48996  87.9119   6.3004 0001689 103.2620 256.8700 13.16594662148794
ONEWEB-0279             
1 48997U 21060AG  24208.84137197 -.00000077  00000+0 -23508-3 0  9998
2 48997  87.9120   6.2059 0001638  79.9338 280.1977 13.16592147150082
ONEWEB-0280             
1 48998U 21060AH  24208.39965629 -.00000036  00000+0 -12868-3 0  9990
2 48998  87.9125   6.2955 0001510  95.4209 264.7094 13.16594048148663
ONEWEB-0281             
1 48999U 21060AJ  24208.40598616  .00000011  00000+0 -50482-5 0  9999
2 48999  87.9120   6.2952 0001999  90.0858 270.0502 13.16593972148735
ONEWEB-0282             
1 49000U 21060AK  24208.43606827  .00000146  00000+0  34717-3 0  9999
2 49000  87.9120   6.3063 0001481  88.2342 271.8959 13.16594978148716
